GLOBALSTAR M001         
1 25162U 98008A   24294.55012194 -.00000025  00000+0  54869-3 0  9991
2 25162  52.0039 310.7025 0001741 103.5118  64.9251 12.38197119214025
GLOBALSTAR M004         
1 25163U 98008B   24294.52108087 -.00000081  00000+0  12973-3 0  9998
2 25163  52.0005  65.3022 0003840 116.3305 319.9780 12.63376037231497
GLOBALSTAR M002         
1 25164U 98008C   24294.49507175 -.00000089  00000+0 -24486-3 0  9997
2 25164  51.9989 121.1889 0002382  77.8396 282.2691 11.61504737156216
GLOBALSTAR M003         
1 25165U 98008D   24294.55173668  .00000032  00000+0  12935-2 0  9992
2 25165  51.9927 112.2000 0008356 165.9567 232.9851 12.12046018204169
GLOBALSTAR M014         
1 25306U 98023A   24294.50316771 -.00000056  00000+0  40276-3 0  9992
2 25306  51.9859  49.4308 0000293 231.8974 208.2076 11.65473101163229
GLOBALSTAR M006         
1 25307U 98023B   24294.55034845 -.00000078  00000+0 -47135-4 0  9994
2 25307  51.9920  92.8283 0004140  46.1174  37.2990 11.58168726189068
GLOBALSTAR M015         
1 25308U 98023C   24294.19595267 -.00000022  00000+0  11670-2 0  9996
2 25308  51.9805 181.1878 0013111  12.9088 134.2216 11.48853748166491
GLOBALSTAR M008         
1 25309U 98023D   24294.80158826 -.00000064  00000+0  25243-3 0  9999
2 25309  51.9953 172.0876 0003319  42.3923  42.8713 12.36052326208558
